{
  "type": "FeatureCollection",
  "features": [
    {
      "type": "Feature",
      "properties": {
        "norad_id": 67039,
        "name": "STARLINK-35705",
        "group": "last-30-days",
        "lat": 10.353481768854204,
        "lon": -89.34368741851004,
        "alt_km": 362.11187094318393,
        "timestamp": "2025-12-25T20:42:37.410977+00:00",
        "meta_object_name": "STARLINK-35705",
        "meta_object_id": "2025-294K",
        "meta_epoch": "2025-12-25T06:00:04.000320",
        "meta_mean_motion": 15.71011592,
        "meta_eccentricity": 0.00015326,
        "meta_inclination": 42.999,
        "meta_ra_of_asc_node": 105.6531,
        "meta_arg_of_pericenter": 268.288,
        "meta_mean_anomaly": 28.7177,
        "meta_ephemeris_type": 0,
        "meta_classification_type": "U",
        "meta_norad_cat_id": 67039,
        "meta_element_set_no": 999,
        "meta_rev_at_epoch": 212,
        "meta_bstar": -0.016855725,
        "meta_mean_motion_dot": -0.01930601,
        "meta_mean_motion_ddot": 0,
        "tle_line1": "1 67039U 25294K   25359.25004630 -.01930601  00000+0 -16856-1 0  9999",
        "tle_line2": "2 67039  42.9990 105.6531 0001532 268.2880  28.7177 15.71011592  2125"
      },
      "geometry": {
        "type": "Point",
        "coordinates": [
          -89.34368741851004,
          10.353481768854204
        ]
      }
    },
    {
      "type": "Feature",
      "properties": {
        "norad_id": 67040,
        "name": "STARLINK-35786",
        "group": "last-30-days",
        "lat": 11.703220431282015,
        "lon": -90.87596751818478,
        "alt_km": 361.8363785482825,
        "timestamp": "2025-12-25T20:42:37.410989+00:00",
        "meta_object_name": "STARLINK-35786",
        "meta_object_id": "2025-294L",
        "meta_epoch": "2025-12-25T06:00:04.000320",
        "meta_mean_motion": 15.71016785,
        "meta_eccentricity": 0.0001471,
        "meta_inclination": 42.9993,
        "meta_ra_of_asc_node": 105.6584,
        "meta_arg_of_pericenter": 265.5601,
        "meta_mean_anomaly": 29.4036,
        "meta_ephemeris_type": 0,
        "meta_classification_type": "U",
        "meta_norad_cat_id": 67040,
        "meta_element_set_no": 999,
        "meta_rev_at_epoch": 212,
        "meta_bstar": -0.016812992,
        "meta_mean_motion_dot": -0.01926594,
        "meta_mean_motion_ddot": 0,
        "tle_line1": "1 67040U 25294L   25359.25004630 -.01926594  00000+0 -16813-1 0  9990",
        "tle_line2": "2 67040  42.9993 105.6584 0001471 265.5601  29.4036 15.71016785  2122"
      },
      "geometry": {
        "type": "Point",
        "coordinates": [
          -90.87596751818478,
          11.703220431282015
        ]
      }
    },
    {
      "type": "Feature",
      "properties": {
        "norad_id": 67041,
        "name": "STARLINK-35765",
        "group": "last-30-days",
        "lat": 9.02115918639654,
        "lon": -87.85176457278975,
        "alt_km": 362.2598616010664,
        "timestamp": "2025-12-25T20:42:37.410999+00:00",
        "meta_object_name": "STARLINK-35765",
        "meta_object_id": "2025-294M",
        "meta_epoch": "2025-12-25T06:00:04.000320",
        "meta_mean_motion": 15.7100609,
        "meta_eccentricity": 0.00015266,
        "meta_inclination": 42.9991,
        "meta_ra_of_asc_node": 105.648,
        "meta_arg_of_pericenter": 267.8583,
        "meta_mean_anomaly": 31.1457,
        "meta_ephemeris_type": 0,
        "meta_classification_type": "U",
        "meta_norad_cat_id": 67041,
        "meta_element_set_no": 999,
        "meta_rev_at_epoch": 212,
        "meta_bstar": -0.016851756,
        "meta_mean_motion_dot": -0.01929794,
        "meta_mean_motion_ddot": 0,
        "tle_line1": "1 67041U 25294M   25359.25004630 -.01929794  00000+0 -16852-1 0  9999",
        "tle_line2": "2 67041  42.9991 105.6480 0001526 267.8583  31.1457 15.71006090  2126"
      },
      "geometry": {
        "type": "Point",
        "coordinates": [
          -87.85176457278975,
          9.02115918639654
        ]
      }
    },
    {
      "type": "Feature",
      "properties": {
        "norad_id": 67042,
        "name": "STARLINK-35773",
        "group": "last-30-days",
        "lat": 7.616794566171277,
        "lon": -86.29815950757262,
        "alt_km": 362.4354993363404,
        "timestamp": "2025-12-25T20:42:37.411011+00:00",
        "meta_object_name": "STARLINK-35773",
        "meta_object_id": "2025-294N",
        "meta_epoch": "2025-12-25T06:00:04.000320",
        "meta_mean_motion": 15.70994558,
        "meta_eccentricity": 0.00015386,
        "meta_inclination": 42.9989,
        "meta_ra_of_asc_node": 105.6428,
        "meta_arg_of_pericenter": 267.4946,
        "meta_mean_anomaly": 33.6193,
        "meta_ephemeris_type": 0,
        "meta_classification_type": "U",
        "meta_norad_cat_id": 67042,
        "meta_element_set_no": 999,
        "meta_rev_at_epoch": 231,
        "meta_bstar": -0.016854368,
        "meta_mean_motion_dot": -0.0192923,
        "meta_mean_motion_ddot": 0,
        "tle_line1": "1 67042U 25294N   25359.25004630 -.01929230  00000+0 -16854-1 0  9997",
        "tle_line2": "2 67042  42.9989 105.6428 0001538 267.4946  33.6193 15.70994558  2317"
      },
      "geometry": {
        "type": "Point",
        "coordinates": [
          -86.29815950757262,
          7.616794566171277
        ]
      }
    },
    {
      "type": "Feature",
      "properties": {
        "norad_id": 67043,
        "name": "STARLINK-35901",
        "group": "last-30-days",
        "lat": 6.214827797225969,
        "lon": -84.76334921182094,
        "alt_km": 362.73324874593436,
        "timestamp": "2025-12-25T20:42:37.411022+00:00",
        "meta_object_name": "STARLINK-35901",
        "meta_object_id": "2025-294P",
        "meta_epoch": "2025-12-25T06:00:04.000320",
        "meta_mean_motion": 15.70980545,
        "meta_eccentricity": 0.00015297,
        "meta_inclination": 42.9989,
        "meta_ra_of_asc_node": 105.6376,
        "meta_arg_of_pericenter": 271.6434,
        "meta_mean_anomaly": 31.5698,
        "meta_ephemeris_type": 0,
        "meta_classification_type": "U",
        "meta_norad_cat_id": 67043,
        "meta_element_set_no": 999,
        "meta_rev_at_epoch": 231,
        "meta_bstar": -0.016834997,
        "meta_mean_motion_dot": -0.01926242,
        "meta_mean_motion_ddot": 0,
        "tle_line1": "1 67043U 25294P   25359.25004630 -.01926242  00000+0 -16835-1 0  9997",
        "tle_line2": "2 67043  42.9989 105.6376 0001529 271.6434  31.5698 15.70980545  2317"
      },
      "geometry": {
        "type": "Point",
        "coordinates": [
          -84.76334921182094,
          6.214827797225969
        ]
      }
    },
    {
      "type": "Feature",
      "properties": {
        "norad_id": 67044,
        "name": "STARLINK-35884",
        "group": "last-30-days",
        "lat": 4.830749310265595,
        "lon": -83.26079078321142,
        "alt_km": 362.8318027433297,
        "timestamp": "2025-12-25T20:42:37.411032+00:00",
        "meta_object_name": "STARLINK-35884",
        "meta_object_id": "2025-294Q",
        "meta_epoch": "2025-12-25T06:00:04.000320",
        "meta_mean_motion": 15.70976812,
        "meta_eccentricity": 0.00015278,
        "meta_inclination": 42.9993,
        "meta_ra_of_asc_node": 105.6325,
        "meta_arg_of_pericenter": 269.1786,
        "meta_mean_anomaly": 36.0898,
        "meta_ephemeris_type": 0,
        "meta_classification_type": "U",
        "meta_norad_cat_id": 67044,
        "meta_element_set_no": 999,
        "meta_rev_at_epoch": 231,
        "meta_bstar": -0.016872069,
        "meta_mean_motion_dot": -0.01929725,
        "meta_mean_motion_ddot": 0,
        "tle_line1": "1 67044U 25294Q   25359.25004630 -.01929725  00000+0 -16872-1 0  9998",
        "tle_line2": "2 67044  42.9993 105.6325 0001527 269.1786  36.0898 15.70976812  2311"
      },
      "geometry": {
        "type": "Point",
        "coordinates": [
          -83.26079078321142,
          4.830749310265595
        ]
      }
    },
    {
      "type": "Feature",
      "properties": {
        "norad_id": 67045,
        "name": "STARLINK-35891",
        "group": "last-30-days",
        "lat": 3.301466398843906,
        "lon": -81.6119791020042,
        "alt_km": 362.9481244115241,
        "timestamp": "2025-12-25T20:42:37.411042+00:00",
        "meta_object_name": "STARLINK-35891",
        "meta_object_id": "2025-294R",
        "meta_epoch": "2025-12-25T06:00:04.000320",
        "meta_mean_motion": 15.70953179,
        "meta_eccentricity": 0.0001502,
        "meta_inclination": 42.9995,
        "meta_ra_of_asc_node": 105.6267,
        "meta_arg_of_pericenter": 266.1411,
        "meta_mean_anomaly": 41.4227,
        "meta_ephemeris_type": 0,
        "meta_classification_type": "U",
        "meta_norad_cat_id": 67045,
        "meta_element_set_no": 999,
        "meta_rev_at_epoch": 223,
        "meta_bstar": -0.016849956,
        "meta_mean_motion_dot": -0.0192575,
        "meta_mean_motion_ddot": 0,
        "tle_line1": "1 67045U 25294R   25359.25004630 -.01925750  00000+0 -16850-1 0  9999",
        "tle_line2": "2 67045  42.9995 105.6267 0001502 266.1411  41.4227 15.70953179  2232"
      },
      "geometry": {
        "type": "Point",
        "coordinates": [
          -81.6119791020042,
          3.301466398843906
        ]
      }
    }
  ]
}